STARLINK-2578           
1 48362U 21038K   25072.01524189  .00004363  00000+0  31146-3 0  9996
2 48362  53.0525 185.3214 0001456  78.4619 281.6533 15.06417201213102
STARLINK-2626           
1 48363U 21038L   25071.68069786  .00042230  00000+0  18133-2 0  9991
2 48363  53.0562 168.9878 0001348  26.3240 333.7825 15.22309114212719
STARLINK-2611           
1 48364U 21038M   25071.57155352  .00004707  00000+0  33451-3 0  9993
2 48364  53.0543 182.3902 0001364  92.0979 268.0166 15.06417104213107
STARLINK-2608           
1 48365U 21038N   25071.99911443 -.00001692  00000+0 -94652-4 0  9994
2 48365  53.0541 180.3085 0002292  82.6547 277.4702 15.06405899213178
STARLINK-2631           
1 48366U 21038P   25072.25206388  .00059584  00000+0  39798-2 0  9999
2 48366  53.0529 174.1747 0001666  95.4984 264.6195 15.06451967213274
STARLINK-2643           
1 48367U 21038Q   25071.98301052  .00029334  00000+0  19796-2 0  9999
2 48367  53.0543 175.3838 0001327  95.2736 264.8404 15.06407382213235
STARLINK-2623           
1 48368U 21038R   25071.56284106  .00010792  00000+0  74217-3 0  9992
2 48368  53.0538 177.5497 0001568  78.4751 281.6414 15.06406440212581
STARLINK-2641           
1 48369U 21038S   25072.25002315  .01481052  00000+0  68956-2 0  9994
2 48369  53.0528 166.1526 0001022  80.2423  66.1826 15.79975937213384
STARLINK-2621           
1 48370U 21038T   25071.57754660  .00005488  00000+0  38701-3 0  9997
2 48370  53.0544 177.2073 0001337  99.2029 260.9111 15.06403479213170
STARLINK-2589           
1 48371U 21038U   25071.70655041  .00011347  00000+0  77901-3 0  9992
2 48371  53.0526 176.6230 0001303  89.6565 270.4573 15.06418397212600
STARLINK-2609           
1 48373U 21038W   25071.56648781  .00011452  00000+0  78626-3 0  9993
2 48373  53.0534 177.2513 0001264 102.2587 257.8544 15.06409720212588
STARLINK-2604           
1 48374U 21038X   25071.66236081  .00010126  00000+0  69749-3 0  9994
2 48374  53.0539 177.1684 0001319 110.9300 249.1830 15.06411078213180
STARLINK-2603           
1 48375U 21038Y   25071.55912879  .00023114  00000+0  15665-2 0  9997
2 48375  53.0542 177.2880 0001438  84.6582 275.4571 15.06377692212585
STARLINK-2610           
1 48376U 21038Z   25071.55543303  .00016001  00000+0  10903-2 0  9997
2 48376  53.0527 177.2985 0001474  73.6421 286.4730 15.06412560212588
STARLINK-2499           
1 48377U 21038AA  25071.66607309  .00005065  00000+0  35860-3 0  9995
2 48377  53.0549 177.3074 0001662  81.9478 278.1699 15.06408508212596
STARLINK-2526           
1 48378U 21038AB  25072.01248212  .00016862  00000+0  11476-2 0  9993
2 48378  53.0530 175.2448 0001579 108.0755 252.0406 15.06418382213246
STARLINK-2612           
1 48379U 21038AC  25071.67706770  .00013947  00000+0  95292-3 0  9993
2 48379  53.0530 176.7528 0001442  71.2877 288.8268 15.06415638212600
STARLINK-2614           
1 48380U 21038AD  25072.01623080  .00011413  00000+0  78352-3 0  9990
2 48380  53.0535 175.7440 0001396  96.0239 264.0909 15.06414339213239
STARLINK-2630           
1 48381U 21038AE  25072.00511265  .00010303  00000+0  70932-3 0  9994
2 48381  53.0538 175.2813 0001525  92.2092 267.9071 15.06412992213247
STARLINK-2585           
1 48382U 21038AF  25072.00147291 -.00013587  00000+0 -89709-3 0  9990
2 48382  53.0526 175.3013 0001621 106.4933 253.6234 15.06313192213242
STARLINK-2598           
1 48385U 21038AJ  25071.99038160  .00029775  00000+0  20088-2 0  9992
2 48385  53.0539 175.3498 0001382  87.1892 272.9256 15.06410288213230
STARLINK-2606           
1 48386U 21038AK  25071.57987027  .00002593  00000+0  19306-3 0  9993
2 48386  53.0540 172.2043 0001305  99.7752 260.3385 15.06372645212657
STARLINK-2594           
1 48388U 21038AM  25071.67199550  .00013741  00000+0  93913-3 0  9995
2 48388  53.0535 171.7786 0001468 107.6941 252.4209 15.06417159213265
STARLINK-2586           
1 48390U 21038AP  25071.52318444  .00003548  00000+0  25694-3 0  9992
2 48390  53.0545 167.4480 0001632  91.1106 269.0070 15.06408750213936
STARLINK-2607           
1 48391U 21038AQ  25072.24931706  .00039165  00000+0  26306-2 0  9999
2 48391  53.0531 164.1889 0001470  79.8696 280.2459 15.06442296213407
STARLINK-2605           
1 48392U 21038AR  25072.24562051  .00016940  00000+0  11525-2 0  9996
2 48392  53.0537 164.2049 0001581  94.4312 265.6858 15.06428793213411
STARLINK-2574           
1 48395U 21038AU  25071.95083490  .00017252  00000+0  11740-2 0  9997
2 48395  53.0547 166.1541 0001301  75.1753 284.9380 15.06408647213991
STARLINK-2575           
1 48396U 21038AV  25071.57109923  .00010921  00000+0  75075-3 0  9994
2 48396  53.0541 167.2321 0001510  70.4816 289.6336 15.06407807213949
STARLINK-2590           
1 48397U 21038AW  25071.56741260  .00005115  00000+0  36200-3 0  9996
2 48397  53.0545 167.2504 0001545 103.1395 256.9766 15.06400082213943
STARLINK-2588           
1 48398U 21038AX  25072.22720077  .00036842  00000+0  24770-2 0  9993
2 48398  53.0541 164.2871 0001430  90.0583 270.0570 15.06435656213417
STARLINK-2587           
1 48399U 21038AY  25071.56005193  .00023901  00000+0  16190-2 0  9994
2 48399  53.0543 167.2817 0001436  80.5312 279.5839 15.06376727213935
STARLINK-2576           
1 48400U 21038AZ  25071.55635012  .00005891  00000+0  41393-3 0  9997
2 48400  53.0550 167.3009 0001602 108.5088 251.6075 15.06409406212726
STARLINK-2571           
1 48401U 21038BA  25072.25667398  .00001829  00000+0  14162-3 0  9999
2 48401  53.0540 164.1591 0001733  94.6678 265.4509 15.06413735213414
STARLINK-2561           
1 48403U 21038BC  25072.21613903  .01605004  13831-2  40367-2 0  9990
2 48403  53.0550 150.8252 0001453 139.8085 252.4409 15.95353928213595
STARLINK-2593           
1 48404U 21038BD  25071.94337558  .00012982  00000+0  88841-3 0  9996
2 48404  53.0537 165.5598 0001430  63.7293 296.3842 15.06416730212789
STARLINK-2570           
1 48405U 21038BE  25071.67428967  .00042388  00000+0  28475-2 0  9991
2 48405  53.0549 166.7691 0001562  66.3363 293.7790 15.06400307212745
STARLINK-2568           
1 48406U 21038BF  25071.67061380  .00015370  00000+0  10479-2 0  9990
2 48406  53.0540 166.7857 0001573  94.2273 265.8895 15.06419692213332
STARLINK-2595           
1 48407U 21038BG  25072.20931813  .00057070  00000+0  23274-2 0  9998
2 48407  53.0572 149.7494 0003573  19.4634 340.6498 15.23911881213605
STARLINK-2592           
1 48408U 21038BH  25072.26035892  .00008148  00000+0  56492-3 0  9998
2 48408  53.0537 164.1376 0001802 108.6320 251.4865 15.06424490213415
STARLINK-2563           
1 48410U 21038BK  25072.15576878  .00001622  00000+0  12768-3 0  9991
2 48410  53.0537 119.6049 0001442 110.9749 249.1394 15.06416660214031
STARLINK-2505           
1 48411U 21038BL  25071.84108727  .00014035  00000+0  95866-3 0  9993
2 48411  53.0526 116.0187 0001444  78.9080 281.2071 15.06423002213471
STARLINK-2581           
1 48412U 21038BM  25072.25764912  .00020525  00000+0  13915-2 0  9999
2 48412  53.0530 114.5813 0001690 101.1479 258.9700 15.06434319214115
STARLINK-2461           
1 48428U 21040A   25072.19906834  .00011893  00000+0  81505-3 0  9992
2 48428  53.0554   9.4090 0001399  96.0535 264.0613 15.06440232213355
STARLINK-2700           
1 48431U 21040D   25071.94887166  .00025242  00000+0  17052-2 0  9992
2 48431  53.0566 335.5394 0001552  92.2003 267.9164 15.06448139212526
STARLINK-2680           
1 48432U 21040E   25072.12908358  .00024493  00000+0  16546-2 0  9995
2 48432  53.0551 330.1227 0001416  89.9135 270.2016 15.06465054213221
STARLINK-2699           
1 48433U 21040F   25072.14151065  .00031709  00000+0  21340-2 0  9999
2 48433  53.0571 334.9507 0001657  89.7999 270.3180 15.06471075213155
STARLINK-2692           
1 48434U 21040G   25072.03971803  .00026741  00000+0  18045-2 0  9996
2 48434  53.0548 340.6386 0001268  91.3407 268.7727 15.06457591212918
STARLINK-2633           
1 48435U 21040H   25072.17878806  .00032970  00000+0  22172-2 0  9998
2 48435  53.0560 349.5117 0001449  94.1375 265.9779 15.06479915213628
STARLINK-2639           
1 48436U 21040J   25071.96917119  .00010539  00000+0  72520-3 0  9996
2 48436  53.0561   5.4415 0001301  98.0507 262.0630 15.06408744212104
STARLINK-2642           
1 48437U 21040K   25072.21887312  .00005606  00000+0  39467-3 0  9999
2 48437  53.0565  14.3256 0001475  92.5169 267.5988 15.06428897213283
STARLINK-2640           
1 48438U 21040L   25072.19034084  .00029434  00000+0  19830-2 0  9993
2 48438  53.0548   4.7206 0001486 104.2468 255.8686 15.06469250213416
STARLINK-2583           
1 48439U 21040M   25072.09447732  .00028443  00000+0  19174-2 0  9991
2 48439  53.0569   4.8797 0001603  88.4722 271.6450 15.06463614213405
STARLINK-2682           
1 48440U 21040N   25072.09079323  .00013899  00000+0  94900-3 0  9990
2 48440  53.0564   4.8894 0001565  97.8674 262.2493 15.06444255212577
STARLINK-2702           
1 48441U 21040P   25071.95442086  .00003355  00000+0  24393-3 0  9990
2 48441  53.0557   5.5058 0001444  91.2497 268.8658 15.06411503212101
STARLINK-2644           
1 48442U 21040Q   25072.08342129  .00029207  00000+0  19682-2 0  9991
2 48442  53.0559   4.9300 0001414  91.4855 268.6296 15.06463241213400
STARLINK-2663           
1 48443U 21040R   25072.21242705  .00039642  00000+0  26610-2 0  9999
2 48443  53.0556   4.3542 0001412  91.8247 268.2904 15.06459481213422
STARLINK-2645           
1 48444U 21040S   25072.20874491  .00016285  00000+0  11082-2 0  9997
2 48444  53.0549   4.3656 0001561  99.1555 260.9610 15.06448141213423
STARLINK-2634           
1 48445U 21040T   25072.20505172  .00019899  00000+0  13489-2 0  9992
2 48445  53.0551   4.3801 0001520 100.5448 259.5712 15.06457589213425
STARLINK-2655           
1 48449U 21040X   25072.19401025  .00026629  00000+0  17973-2 0  9997
2 48449  53.0550   4.4333 0001437 100.1492 259.9659 15.06453036213428
